ONEWEB-0412             
1 50489U 21132W   24084.56994406  .00000080  00000+0  16961-3 0  9999
2 50489  87.9178 137.6167 0002159  84.1308 276.0070 13.18686341115572
ONEWEB-0413             
1 50490U 21132X   24084.57468742  .00000235  00000+0  56328-3 0  9994
2 50490  87.9181 137.6276 0001841  83.4789 276.6553 13.18688180114238
ONEWEB-0414             
1 50491U 21132Y   24084.56045209  .00000097  00000+0  21312-3 0  9994
2 50491  87.9175 137.6137 0002284  91.0155 269.1239 13.18684433114260
ONEWEB-0417             
1 50492U 21132Z   24084.41660226  .00000074  00000+0  15499-3 0  9995
2 50492  87.9181 137.6394 0002307 104.3365 255.8023 13.18684392114223
ONEWEB-0418             
1 50493U 21132AA  24084.57771052  .00000118  00000+0  26675-3 0  9990
2 50493  87.9176 137.6135 0002559 103.5817 256.5600 13.18687857114300
ONEWEB-0419             
1 50494U 21132AB  24084.59522293  .00000086  00000+0  18421-3 0  9998
2 50494  87.9172 137.6304 0002182 108.3315 251.8054 13.18684596114222
ONEWEB-0420             
1 50495U 21132AC  24084.56204140  .00000066  00000+0  13422-3 0  9998
2 50495  87.9173 137.6454 0001710  92.5117 267.6211 13.18686438114216
ONEWEB-0421             
1 50496U 21132AD  24084.55570356 -.00000468  00000+0 -12203-2 0  9996
2 50496  87.9185 137.6065 0002198  88.4776 271.6608 13.18680150114258
